CCSDS_OMM_VERS = 2.0
CREATION_DATE  = 
ORIGINATOR     = 

OBJECT_NAME    = SOYUZ-MS 28
OBJECT_ID      = 2025-275A
CENTER_NAME    = EARTH
REF_FRAME      = TEME
TIME_SYSTEM    = UTC
MEAN_ELEMENT_THEORY = SGP/SGP4

EPOCH          = 2026-01-10T21:16:59.692800
MEAN_MOTION    = 15.49222658
ECCENTRICITY   = .0007686
INCLINATION    = 51.6334
RA_OF_ASC_NODE = 358.1732
ARG_OF_PERICENTER = 4.2400
MEAN_ANOMALY   = 355.8652

EPHEMERIS_TYPE = 0
CLASSIFICATION_TYPE = U
NORAD_CAT_ID   = 66664
ELEMENT_SET_NO = 999
REV_AT_EPOCH   = 128
BSTAR          = .18059147E-3
MEAN_MOTION_DOT = .9595E-4
MEAN_MOTION_DDOT = 0

CCSDS_OMM_VERS = 2.0
CREATION_DATE  = 
ORIGINATOR     = 

OBJECT_NAME    = 1998-067XS
OBJECT_ID      = 1998-067XS
CENTER_NAME    = EARTH
REF_FRAME      = TEME
TIME_SYSTEM    = UTC
MEAN_ELEMENT_THEORY = SGP/SGP4

EPOCH          = 2026-01-09T07:11:33.830304
MEAN_MOTION    = 15.52220738
ECCENTRICITY   = .00023625
INCLINATION    = 51.6320
RA_OF_ASC_NODE = 5.5768
ARG_OF_PERICENTER = 347.8929
MEAN_ANOMALY   = 12.2003

EPHEMERIS_TYPE = 0
CLASSIFICATION_TYPE = U
NORAD_CAT_ID   = 66906
ELEMENT_SET_NO = 999
REV_AT_EPOCH   = 589
BSTAR          = .51807589E-3
MEAN_MOTION_DOT = .31665E-3
MEAN_MOTION_DDOT = 0

CCSDS_OMM_VERS = 2.0
CREATION_DATE  = 
ORIGINATOR     = 

OBJECT_NAME    = 1998-067XT
OBJECT_ID      = 1998-067XT
CENTER_NAME    = EARTH
REF_FRAME      = TEME
TIME_SYSTEM    = UTC
MEAN_ELEMENT_THEORY = SGP/SGP4

EPOCH          = 2026-01-10T23:54:17.150976
MEAN_MOTION    = 15.55852451
ECCENTRICITY   = .00037821
INCLINATION    = 51.6315
RA_OF_ASC_NODE = 356.6553
ARG_OF_PERICENTER = 41.0952
MEAN_ANOMALY   = 319.0324

EPHEMERIS_TYPE = 0
CLASSIFICATION_TYPE = U
NORAD_CAT_ID   = 66907
ELEMENT_SET_NO = 999
REV_AT_EPOCH   = 616
BSTAR          = .10783823E-2
MEAN_MOTION_DOT = .7631E-3
MEAN_MOTION_DDOT = 0

CCSDS_OMM_VERS = 2.0
CREATION_DATE  = 
ORIGINATOR     = 

OBJECT_NAME    = 1998-067XU
OBJECT_ID      = 1998-067XU
CENTER_NAME    = EARTH
REF_FRAME      = TEME
TIME_SYSTEM    = UTC
MEAN_ELEMENT_THEORY = SGP/SGP4

EPOCH          = 2026-01-10T16:10:22.099296
MEAN_MOTION    = 15.55774857
ECCENTRICITY   = .00037256
INCLINATION    = 51.6308
RA_OF_ASC_NODE = 358.2523
ARG_OF_PERICENTER = 35.6942
MEAN_ANOMALY   = 324.4298

EPHEMERIS_TYPE = 0
CLASSIFICATION_TYPE = U
NORAD_CAT_ID   = 66908
ELEMENT_SET_NO = 999
REV_AT_EPOCH   = 611
BSTAR          = .10060388E-2
MEAN_MOTION_DOT = .70904E-3
MEAN_MOTION_DDOT = 0

CCSDS_OMM_VERS = 2.0
CREATION_DATE  = 
ORIGINATOR     = 

OBJECT_NAME    = SILVERSAT
OBJECT_ID      = 1998-067XV
CENTER_NAME    = EARTH
REF_FRAME      = TEME
TIME_SYSTEM    = UTC
MEAN_ELEMENT_THEORY = SGP/SGP4

EPOCH          = 2026-01-10T23:43:02.403264
MEAN_MOTION    = 15.56474179
ECCENTRICITY   = .00039346
INCLINATION    = 51.6306
RA_OF_ASC_NODE = 356.6023
ARG_OF_PERICENTER = 47.0598
MEAN_ANOMALY   = 313.0723

EPHEMERIS_TYPE = 0
CLASSIFICATION_TYPE = U
NORAD_CAT_ID   = 66909
ELEMENT_SET_NO = 999
REV_AT_EPOCH   = 616
BSTAR          = .11930145E-2
MEAN_MOTION_DOT = .86564E-3
MEAN_MOTION_DDOT = 0

CCSDS_OMM_VERS = 2.0
CREATION_DATE  = 
ORIGINATOR     = 

OBJECT_NAME    = 1998-067XW
OBJECT_ID      = 1998-067XW
CENTER_NAME    = EARTH
REF_FRAME      = TEME
TIME_SYSTEM    = UTC
MEAN_ELEMENT_THEORY = SGP/SGP4

EPOCH          = 2026-01-10T23:43:56.860320
MEAN_MOTION    = 15.56148288
ECCENTRICITY   = .00028339
INCLINATION    = 51.6293
RA_OF_ASC_NODE = 356.6050
ARG_OF_PERICENTER = 21.9506
MEAN_ANOMALY   = 338.1607

EPHEMERIS_TYPE = 0
CLASSIFICATION_TYPE = U
NORAD_CAT_ID   = 66910
ELEMENT_SET_NO = 999
REV_AT_EPOCH   = 616
BSTAR          = .11105542E-2
MEAN_MOTION_DOT = .79493E-3
MEAN_MOTION_DDOT = 0

CCSDS_OMM_VERS = 2.0
CREATION_DATE  = 
ORIGINATOR     = 

OBJECT_NAME    = 1998-067XX
OBJECT_ID      = 1998-067XX
CENTER_NAME    = EARTH
REF_FRAME      = TEME
TIME_SYSTEM    = UTC
MEAN_ELEMENT_THEORY = SGP/SGP4

EPOCH          = 2026-01-10T15:43:53.291424
MEAN_MOTION    = 15.57117336
ECCENTRICITY   = .00028474
INCLINATION    = 51.6297
RA_OF_ASC_NODE = 358.1295
ARG_OF_PERICENTER = 37.1518
MEAN_ANOMALY   = 322.9671

EPHEMERIS_TYPE = 0
CLASSIFICATION_TYPE = U
NORAD_CAT_ID   = 66911
ELEMENT_SET_NO = 999
REV_AT_EPOCH   = 610
BSTAR          = .11746891E-2
MEAN_MOTION_DOT = .87297E-3
MEAN_MOTION_DDOT = 0

CCSDS_OMM_VERS = 2.0
CREATION_DATE  = 
ORIGINATOR     = 

OBJECT_NAME    = 1998-067XY
OBJECT_ID      = 1998-067XY
CENTER_NAME    = EARTH
REF_FRAME      = TEME
TIME_SYSTEM    = UTC
MEAN_ELEMENT_THEORY = SGP/SGP4

EPOCH          = 2026-01-10T22:43:45.070752
MEAN_MOTION    = 15.54537367
ECCENTRICITY   = .00036408
INCLINATION    = 51.6318
RA_OF_ASC_NODE = 357.0773
ARG_OF_PERICENTER = 24.1459
MEAN_ANOMALY   = 335.9702

EPHEMERIS_TYPE = 0
CLASSIFICATION_TYPE = U
NORAD_CAT_ID   = 66912
ELEMENT_SET_NO = 999
REV_AT_EPOCH   = 614
BSTAR          = .86293014E-3
MEAN_MOTION_DOT = .57935E-3
MEAN_MOTION_DDOT = 0

