SOYUZ-MS 28             
1 66664U 25275A   26010.88680200  .00009595  00000+0  18059-3 0  9993
2 66664  51.6334 358.1732 0007686   4.2400 355.8652 15.49222658  1287
1998-067XS              
1 66906U 98067XS  26009.29969711  .00031665  00000+0  51808-3 0  9993
2 66906  51.6320   5.5768 0002362 347.8929  12.2003 15.52220738  5897
1998-067XT              
1 66907U 98067XT  26010.99603184  .00076310  00000+0  10784-2 0  9995
2 66907  51.6315 356.6553 0003782  41.0952 319.0324 15.55852451  6161
1998-067XU              
1 66908U 98067XU  26010.67386689  .00070904  00000+0  10060-2 0  9999
2 66908  51.6308 358.2523 0003725  35.6942 324.4298 15.55774857  6112
SILVERSAT               
1 66909U 98067XV  26010.98822226  .00086564  00000+0  11930-2 0  9992
2 66909  51.6306 356.6023 0003934  47.0598 313.0723 15.56474179  6161
1998-067XW              
1 66910U 98067XW  26010.98885255  .00079493  00000+0  11106-2 0  9993
2 66910  51.6293 356.6050 0002833  21.9506 338.1607 15.56148288  6163
1998-067XX              
1 66911U 98067XX  26010.65547791  .00087297  00000+0  11747-2 0  9990
2 66911  51.6297 358.1295 0002847  37.1518 322.9671 15.57117336  6100
1998-067XY              
1 66912U 98067XY  26010.94704943  .00057935  00000+0  86293-3 0  9992
2 66912  51.6318 357.0773 0003640  24.1459 335.9702 15.54537367  6146
